{
  "type": "FeatureCollection",
  "features": [
    {
      "type": "Feature",
      "properties": {
        "norad_id": 41772,
        "name": "SKYSAT-C5",
        "group": "resource",
        "lat": 42.03666134249382,
        "lon": -144.54897790743152,
        "alt_km": 454.9620409921963,
        "timestamp": "2025-12-11T05:00:25.968449+00:00",
        "meta_object_name": "SKYSAT-C5",
        "meta_object_id": "2016-058C",
        "meta_epoch": "2025-12-10T20:35:21.800544",
        "meta_mean_motion": 15.35309955,
        "meta_eccentricity": 0.00024491,
        "meta_inclination": 97.0761,
        "meta_ra_of_asc_node": 28.684,
        "meta_arg_of_pericenter": 138.9206,
        "meta_mean_anomaly": 221.2223,
        "meta_ephemeris_type": 0,
        "meta_classification_type": "U",
        "meta_norad_cat_id": 41772,
        "meta_element_set_no": 999,
        "meta_rev_at_epoch": 51487,
        "meta_bstar": 0.00044384128,
        "meta_mean_motion_dot": 0.00015157,
        "meta_mean_motion_ddot": 0,
        "tle_line1": "1 41772U 16058C   25344.85789121  .00015157  00000+0  44384-3 0  9994",
        "tle_line2": "2 41772  97.0761  28.6840 0002449 138.9206 221.2223 15.35309955514873"
      },
      "geometry": {
        "type": "Point",
        "coordinates": [
          -144.54897790743152,
          42.03666134249382
        ]
      }
    },
    {
      "type": "Feature",
      "properties": {
        "norad_id": 41773,
        "name": "SKYSAT-C2",
        "group": "resource",
        "lat": 43.32152969154213,
        "lon": -163.51070804580877,
        "alt_km": 451.31453271368537,
        "timestamp": "2025-12-11T05:00:25.968459+00:00",
        "meta_object_name": "SKYSAT-C2",
        "meta_object_id": "2016-058D",
        "meta_epoch": "2025-12-10T08:06:25.640064",
        "meta_mean_motion": 15.37180734,
        "meta_eccentricity": 0.0004477,
        "meta_inclination": 97.0364,
        "meta_ra_of_asc_node": 8.9661,
        "meta_arg_of_pericenter": 40.507,
        "meta_mean_anomaly": 319.6508,
        "meta_ephemeris_type": 0,
        "meta_classification_type": "U",
        "meta_norad_cat_id": 41773,
        "meta_element_set_no": 999,
        "meta_rev_at_epoch": 51599,
        "meta_bstar": 0.0004509,
        "meta_mean_motion_dot": 0.00016358,
        "meta_mean_motion_ddot": 0,
        "tle_line1": "1 41773U 16058D   25344.33779676  .00016358  00000+0  45090-3 0  9991",
        "tle_line2": "2 41773  97.0364   8.9661 0004477  40.5070 319.6508 15.37180734515991"
      },
      "geometry": {
        "type": "Point",
        "coordinates": [
          -163.51070804580877,
          43.32152969154213
        ]
      }
    },
    {
      "type": "Feature",
      "properties": {
        "norad_id": 41774,
        "name": "SKYSAT-C3",
        "group": "resource",
        "lat": -72.97463987262464,
        "lon": 42.42986078885895,
        "alt_km": 441.8828291219288,
        "timestamp": "2025-12-11T05:00:25.968469+00:00",
        "meta_object_name": "SKYSAT-C3",
        "meta_object_id": "2016-058E",
        "meta_epoch": "2025-12-10T19:59:53.945664",
        "meta_mean_motion": 15.44284919,
        "meta_eccentricity": 0.00016396,
        "meta_inclination": 96.9301,
        "meta_ra_of_asc_node": 18.6678,
        "meta_arg_of_pericenter": 106.607,
        "meta_mean_anomaly": 253.536,
        "meta_ephemeris_type": 0,
        "meta_classification_type": "U",
        "meta_norad_cat_id": 41774,
        "meta_element_set_no": 999,
        "meta_rev_at_epoch": 51696,
        "meta_bstar": 0.00057044033,
        "meta_mean_motion_dot": 0.00026221,
        "meta_mean_motion_ddot": 0,
        "tle_line1": "1 41774U 16058E   25344.83326326  .00026221  00000+0  57044-3 0  9999",
        "tle_line2": "2 41774  96.9301  18.6678 0001639 106.6070 253.5360 15.44284919516966"
      },
      "geometry": {
        "type": "Point",
        "coordinates": [
          42.42986078885895,
          -72.97463987262464
        ]
      }
    },
    {
      "type": "Feature",
      "properties": {
        "norad_id": 41785,
        "name": "ALSAT 1B",
        "group": "resource",
        "lat": -2.0362461700234835,
        "lon": 176.7855684372166,
        "alt_km": 655.7375344999364,
        "timestamp": "2025-12-11T05:00:25.968478+00:00",
        "meta_object_name": "ALSAT 1B",
        "meta_object_id": "2016-059C",
        "meta_epoch": "2025-12-10T23:17:25.271232",
        "meta_mean_motion": 14.72072248,
        "meta_eccentricity": 0.00106608,
        "meta_inclination": 97.7814,
        "meta_ra_of_asc_node": 356.8362,
        "meta_arg_of_pericenter": 108.093,
        "meta_mean_anomaly": 252.144,
        "meta_ephemeris_type": 0,
        "meta_classification_type": "U",
        "meta_norad_cat_id": 41785,
        "meta_element_set_no": 999,
        "meta_rev_at_epoch": 49288,
        "meta_bstar": 0.00011632241,
        "meta_mean_motion_dot": 6.85e-06,
        "meta_mean_motion_ddot": 0,
        "tle_line1": "1 41785U 16059C   25344.97043138  .00000685  00000+0  11632-3 0  9993",
        "tle_line2": "2 41785  97.7814 356.8362 0010660 108.0930 252.1440 14.72072248492886"
      },
      "geometry": {
        "type": "Point",
        "coordinates": [
          176.7855684372166,
          -2.0362461700234835
        ]
      }
    },
    {
      "type": "Feature",
      "properties": {
        "norad_id": 41787,
        "name": "PATHFINDER 1",
        "group": "resource",
        "lat": -71.86553270882621,
        "lon": 12.842489495927104,
        "alt_km": 696.7635445671876,
        "timestamp": "2025-12-11T05:00:25.968488+00:00",
        "meta_object_name": "PATHFINDER 1",
        "meta_object_id": "2016-059E",
        "meta_epoch": "2025-12-10T17:53:12.304320",
        "meta_mean_motion": 14.67315559,
        "meta_eccentricity": 0.00300544,
        "meta_inclination": 97.8139,
        "meta_ra_of_asc_node": 347.6114,
        "meta_arg_of_pericenter": 87.2578,
        "meta_mean_anomaly": 273.2067,
        "meta_ephemeris_type": 0,
        "meta_classification_type": "U",
        "meta_norad_cat_id": 41787,
        "meta_element_set_no": 999,
        "meta_rev_at_epoch": 49207,
        "meta_bstar": 0.0002356788,
        "meta_mean_motion_dot": 1.292e-05,
        "meta_mean_motion_ddot": 0,
        "tle_line1": "1 41787U 16059E   25344.74528130  .00001292  00000+0  23568-3 0  9996",
        "tle_line2": "2 41787  97.8139 347.6114 0030054  87.2578 273.2067 14.67315559492076"
      },
      "geometry": {
        "type": "Point",
        "coordinates": [
          12.842489495927104,
          -71.86553270882621
        ]
      }
    },
    {
      "type": "Feature",
      "properties": {
        "norad_id": 41790,
        "name": "SCATSAT 1",
        "group": "resource",
        "lat": -35.511486038607046,
        "lon": -144.00728049183877,
        "alt_km": 633.9974405265084,
        "timestamp": "2025-12-11T05:00:25.968498+00:00",
        "meta_object_name": "SCATSAT 1",
        "meta_object_id": "2016-059H",
        "meta_epoch": "2025-12-10T21:32:38.931648",
        "meta_mean_motion": 14.78926535,
        "meta_eccentricity": 0.00562002,
        "meta_inclination": 98.1464,
        "meta_ra_of_asc_node": 41.5448,
        "meta_arg_of_pericenter": 133.8153,
        "meta_mean_anomaly": 226.7725,
        "meta_ephemeris_type": 0,
        "meta_classification_type": "U",
        "meta_norad_cat_id": 41790,
        "meta_element_set_no": 999,
        "meta_rev_at_epoch": 7375,
        "meta_bstar": 0.00034373421,
        "meta_mean_motion_dot": 2.547e-05,
        "meta_mean_motion_ddot": 0,
        "tle_line1": "1 41790U 16059H   25344.89767282  .00002547  00000+0  34373-3 0  9999",
        "tle_line2": "2 41790  98.1464  41.5448 0056200 133.8153 226.7725 14.78926535 73751"
      },
      "geometry": {
        "type": "Point",
        "coordinates": [
          -144.00728049183877,
          -35.511486038607046
        ]
      }
    },
    {
      "type": "Feature",
      "properties": {
        "norad_id": 41875,
        "name": "GOKTURK 1A",
        "group": "resource",
        "lat": 28.277682227084178,
        "lon": -126.82315988634005,
        "alt_km": 682.3909735254656,
        "timestamp": "2025-12-11T05:00:25.968509+00:00",
        "meta_object_name": "GOKTURK 1A",
        "meta_object_id": "2016-073A",
        "meta_epoch": "2025-12-10T23:57:06.657408",
        "meta_mean_motion": 14.62776193,
        "meta_eccentricity": 0.00012522,
        "meta_inclination": 98.1425,
        "meta_ra_of_asc_node": 237.3863,
        "meta_arg_of_pericenter": 78.3831,
        "meta_mean_anomaly": 281.7511,
        "meta_ephemeris_type": 0,
        "meta_classification_type": "U",
        "meta_norad_cat_id": 41875,
        "meta_element_set_no": 999,
        "meta_rev_at_epoch": 48131,
        "meta_bstar": 0.00016917795,
        "meta_mean_motion_dot": 8.16e-06,
        "meta_mean_motion_ddot": 0,
        "tle_line1": "1 41875U 16073A   25344.99799372  .00000816  00000+0  16918-3 0  9997",
        "tle_line2": "2 41875  98.1425 237.3863 0001252  78.3831 281.7511 14.62776193481316"
      },
      "geometry": {
        "type": "Point",
        "coordinates": [
          -126.82315988634005,
          28.277682227084178
        ]
      }
    }
  ]
}